GOES 1 (SMS-C) [-]      
1 08366U 75100A   20129.11728766 -.00000222  00000-0  00000-0 0  9995
2 08366  10.0461 305.5097 0002542   8.2614 228.8020  1.00244507162699
GOES 2 [-]              
1 10061U 77048A   20128.84780413 -.00000281  00000-0  00000+0 0  9993
2 10061  11.4913 315.5818 0015736   5.1311 179.9732  0.99400746101338
GOES 3 [-]              
1 10953U 78062A   20129.14753323 -.00000192  00000-0  00000+0 0  9995
2 10953  11.7419 319.5724 0004155  47.9831 202.3448  0.99359578106422
GOES 4 [-]              
1 11964U 80074A   20128.78272612 -.00000170  00000-0  00000-0 0  9997
2 11964  12.6276 323.3336 0036168  46.9588 140.3734  0.99233204105295
GOES 5 [-]              
1 12472U 81049A   20129.14753306 -.00000296  00000-0  00000+0 0  9998
2 12472  13.1760 334.0310 0003217  13.9740 222.3947  1.00249674100594
GOES 6 [-]              
1 14050U 83041A   20129.05368090 -.00000266  00000-0  00000-0 0  9996
2 14050  13.5868 339.1060 0003704  57.5340 130.7346  1.00248127193645
GOES 7 [-]              
1 17561U 87022A   20129.28846619  .00000059  00000-0  00000+0 0  9990
2 17561  14.8108 355.3083 0008372  14.4882 160.7835  0.99902838104696
GOES 8 [-]              
1 23051U 94022A   20129.15443539 -.00000118  00000-0  00000+0 0  9996
2 23051  12.5052  29.8757 0008404 339.7851 106.4059  0.98906737102050
GOES 9 [-]              
1 23581U 95025A   20128.86045333 -.00000055  00000-0  00000-0 0  9996
2 23581  11.9931  29.8328 0006379  35.8525 142.7042  0.98800228 90714
GOES 10 [-]             
1 24786U 97019A   20129.33335924  .00000036  00000-0  00000+0 0  9997
2 24786  10.5584  35.4571 0023572 188.6412   7.1375  0.99120744 83949
GOES 11 [-]             
1 26352U 00022A   20129.13629331 -.00000252  00000-0  00000-0 0  9994
2 26352   7.0855  65.2372 0002419 278.4032 267.8428  0.99045232 30376
GOES 12 [-]             
1 26871U 01031A   20129.06650457 -.00000238  00000-0  00000-0 0  9990
2 26871   8.1679  53.0203 0008083 290.3755 253.0795  0.99140760 68641
GOES 13 [B]             
1 29155U 06018A   20129.15604979  .00000030  00000-0  00000-0 0  9995
2 29155   0.2352 268.4486 0004201 288.3586 146.9664  1.00272359 20996
GOES 14 [S]             
1 35491U 09033A   20129.24836368 -.00000103  00000-0  00000-0 0  9996
2 35491   0.2270  98.1260 0007800 124.1344 349.5089  1.00270807 39752
GOES 15 [+]             
1 36411U 10008A   20129.23206594  .00000046  00000-0  00000-0 0  9999
2 36411   0.2104 274.6457 0002641 148.0924 119.0256  1.00269894 37306
GOES 16 [+]             
1 41866U 16071A   20129.26603403 -.00000258  00000-0  00000-0 0  9994
2 41866   0.0124 284.2013 0001309 159.8551 163.0726  1.00272246 12744
GOES-S [+]              
1 43226U 18022A   20129.44245222  .00000087  00000-0  00000+0 0  9993
2 43226   0.0146 269.0479 0000794 156.8189 182.9446  1.00272729  8063
